MINXSS-2                
1 43758U 18099A   26176.17654958  .00044561  00000+0  86792-3 0  9995
2 43758  97.4537 252.6971 0007305 224.7888 135.2772 15.47398498415364
SIRION PATHFINDER-2     
1 43759U 18099B   26176.10979164  .00005115  00000+0  28033-3 0  9994
2 43759  97.4252 224.9788 0007038 271.1820  88.8606 15.14612741413824
AISTECHSAT 2            
1 43768U 18099L   26176.07831785  .00006350  00000+0  33852-3 0  9993
2 43768  97.4291 223.9393 0003006 267.7750  92.3139 15.15519917413476
FOX-1CLIFF (AO-95)      
1 43770U 18099N   26176.13902103  .00013017  00000+0  49535-3 0  9999
2 43770  97.4384 236.3562 0007228 326.7898  33.2886 15.26862763414439
RANGE-A                 
1 43773U 18099R   26176.11213131  .00004967  00000+0  28118-3 0  9994
2 43773  97.3966 218.4593 0009039 327.8769  32.1910 15.13449508413690
SNUSAT-2                
1 43782U 18099AA  26176.09180144  .00009459  00000+0  41744-3 0  9999
2 43782  97.4058 229.3538 0008556 265.4499  94.5760 15.21943939414235
SNUGLITE                
1 43784U 18099AC  26175.87496758  .00012351  00000+0  46391-3 0  9995
2 43784  97.3869 230.0794 0001520 231.9015 128.2087 15.27326303414496
ITASAT                  
1 43786U 18099AE  26176.12374922  .00007218  00000+0  34610-3 0  9991
2 43786  97.4030 227.4770 0011297 331.0852  28.9756 15.19145162414117
EAGLET-I                
1 43790U 18099AJ  26176.12157410  .00003942  00000+0  22673-3 0  9993
2 43790  97.4229 225.5800 0009927 325.1578  34.9002 15.12992961413537
ESEO                    
1 43792U 18099AL  26176.02964957  .00001351  00000+0  10116-3 0  9997
2 43792  97.3976 213.0825 0010400 312.8978  47.1374 15.04272002412985
THEA                    
1 43796U 18099AQ  26176.15448828  .00021579  00000+0  63135-3 0  9992
2 43796  97.4444 245.9247 0006212 247.7540 112.3044 15.35257954413915
ASTROCAST 0.1           
1 43798U 18099AS  26176.13865873  .00046976  00000+0  83450-3 0  9995
2 43798  97.4374 254.8857 0005588 179.8925 180.2328 15.50041647415662
JY1SAT (JO-97)          
1 43803U 18099AX  26176.12045785  .00020902  00000+0  63898-3 0  9998
2 43803  97.4134 238.9829 0004923 226.5613 133.5221 15.33882017414848
SUOMI-100               
1 43804U 18099AY  26176.12765316  .00015183  00000+0  54767-3 0  9998
2 43804  97.4190 236.4918 0008650 245.7808 114.2528 15.28581723414630
CENTAURI-1              
1 43809U 18099BD  26176.12458163  .00005499  00000+0  28568-3 0  9991
2 43809  97.4221 227.6737 0012518 303.6260  56.3778 15.16435456413703
GLOBAL-2                
1 43812U 18099BG  26176.03379911  .00003310  00000+0  21476-3 0  9999
2 43812  97.3559 212.2209 0007473 120.6472 239.5495 15.08714904413092
SEAHAWK-1               
1 43820U 18099BQ  26176.08695153  .00010449  00000+0  44790-3 0  9997
2 43820  97.3963 228.4523 0006508 280.9990  79.0514 15.22922165413737
SAUDISAT 5A             
1 43831U 18102A   26176.21932642  .00006098  00000+0  22470-3 0  9992
2 43831  97.3069 237.6454 0011306 104.7148 255.5346 15.28123491416908
SAUDISAT 5B             
1 43833U 18102C   26176.23683123  .00005949  00000+0  21755-3 0  9992
2 43833  97.3176 240.7468 0012012 106.5744 253.6816 15.28376535417020
ISAT                    
1 43879U 18111D   26174.55295329  .00082802  00000+0  79540-3 0  9990
2 43879  97.5872 110.2675 0002605 165.3365 194.7971 15.66333302412169
UWE-4                   
1 43880U 18111E   26175.07461358  .00030603  00000+0  61683-3 0  9998
2 43880  97.5841 103.7842 0004486 307.8238  52.2604 15.46500339411840
D-STAR ONE (SPARROW)    
1 43881U 18111F   26174.35634660  .00149766  00000+0  94570-3 0  9999
2 43881  97.6095 115.7899 0004618 124.5126 235.6575 15.76173004412343
JILIN-1 09              
1 43943U 19005B   26176.14278653  .00005342  00000+0  24704-3 0  9999
2 43943  97.4741 271.0373 0003649  78.6395 281.5250 15.20576408410354
JILIN-1 10              
1 43946U 19005E   26176.19332610  .00006352  00000+0  25128-3 0  9994
2 43946  97.4787 274.9975 0006784 244.4246 115.6291 15.25799330410536
EGYPTSAT-A (MISRSAT-A)  
1 44047U 19008A   26176.16268339  .00000584  00000+0  10022-3 0  9991
2 44047  98.0193 240.8168 0001461 100.7552 259.3820 14.72315746394412
EMISAT                  
1 44078U 19018A   26176.18404289  .00000152  00000+0  57798-4 0  9997
2 44078  98.4645 234.9409 0018086 190.2113 169.8713 14.43640495381212
JILIN-1 GAOFEN 3A       
1 44312U 19032C   26175.25447479  .00010772  00000+0  34286-3 0  9994
2 44312  44.9760 318.0376 0006084 328.9912  31.0613 15.32769932388927
WT 1B                   
1 44316U 19032G   26176.04851876  .00009788  00000+0  36902-3 0  9998
2 44316  44.9718  18.0258 0010035 287.7631  72.2156 15.27316324388286
