OBJECT_NAME,OBJECT_ID,EPOCH,MEAN_MOTION,ECCENTRICITY,INCLINATION,RA_OF_ASC_NODE,ARG_OF_PERICENTER,MEAN_ANOMALY,EPHEMERIS_TYPE,CLASSIFICATION_TYPE,NORAD_CAT_ID,ELEMENT_SET_NO,REV_AT_EPOCH,BSTAR,MEAN_MOTION_DOT,MEAN_MOTION_DDOT
MINXSS-2,2018-099A,2026-06-25T04:14:13.883712,15.47398498,.0007305,97.4537,252.6971,224.7888,135.2772,0,U,43758,999,41536,.86792E-3,.44561E-3,0
SIRION PATHFINDER-2,2018-099B,2026-06-25T02:38:05.997696,15.14612741,.0007038,97.4252,224.9788,271.1820,88.8606,0,U,43759,999,41382,.28033E-3,.5115E-4,0
AISTECHSAT 2,2018-099L,2026-06-25T01:52:46.662240,15.15519917,.0003006,97.4291,223.9393,267.7750,92.3139,0,U,43768,999,41347,.33852E-3,.635E-4,0
FOX-1CLIFF (AO-95),2018-099N,2026-06-25T03:20:11.416992,15.26862763,.0007228,97.4384,236.3562,326.7898,33.2886,0,U,43770,999,41443,.49535E-3,.13017E-3,0
RANGE-A,2018-099R,2026-06-25T02:41:28.145184,15.13449508,.0009039,97.3966,218.4593,327.8769,32.1910,0,U,43773,999,41369,.28118E-3,.4967E-4,0
SNUSAT-2,2018-099AA,2026-06-25T02:12:11.644416,15.21943939,.0008556,97.4058,229.3538,265.4499,94.5760,0,U,43782,999,41423,.41744E-3,.9459E-4,0
SNUGLITE,2018-099AC,2026-06-24T20:59:57.198912,15.27326303,.000152,97.3869,230.0794,231.9015,128.2087,0,U,43784,999,41449,.46391E-3,.12351E-3,0
ITASAT,2018-099AE,2026-06-25T02:58:11.932608,15.19145162,.0011297,97.4030,227.4770,331.0852,28.9756,0,U,43786,999,41411,.3461E-3,.7218E-4,0
EAGLET-I,2018-099AJ,2026-06-25T02:55:04.002240,15.12992961,.0009927,97.4229,225.5800,325.1578,34.9002,0,U,43790,999,41353,.22673E-3,.3942E-4,0
ESEO,2018-099AL,2026-06-25T00:42:41.722848,15.04272002,.00104,97.3976,213.0825,312.8978,47.1374,0,U,43792,999,41298,.10116E-3,.1351E-4,0
THEA,2018-099AQ,2026-06-25T03:42:27.787392,15.35257954,.0006212,97.4444,245.9247,247.7540,112.3044,0,U,43796,999,41391,.63135E-3,.21579E-3,0
ASTROCAST 0.1,2018-099AS,2026-06-25T03:19:40.114272,15.50041647,.0005588,97.4374,254.8857,179.8925,180.2328,0,U,43798,999,41566,.8345E-3,.46976E-3,0
JY1SAT (JO-97),2018-099AX,2026-06-25T02:53:27.558240,15.33882017,.0004923,97.4134,238.9829,226.5613,133.5221,0,U,43803,999,41484,.63898E-3,.20902E-3,0
SUOMI-100,2018-099AY,2026-06-25T03:03:49.233024,15.28581723,.000865,97.4190,236.4918,245.7808,114.2528,0,U,43804,999,41463,.54767E-3,.15183E-3,0
CENTAURI-1,2018-099BD,2026-06-25T02:59:23.852832,15.16435456,.0012518,97.4221,227.6737,303.6260,56.3778,0,U,43809,999,41370,.28568E-3,.5499E-4,0
GLOBAL-2,2018-099BG,2026-06-25T00:48:40.243104,15.08714904,.0007473,97.3559,212.2209,120.6472,239.5495,0,U,43812,999,41309,.21476E-3,.331E-4,0
SEAHAWK-1,2018-099BQ,2026-06-25T02:05:12.612192,15.22922165,.0006508,97.3963,228.4523,280.9990,79.0514,0,U,43820,999,41373,.4479E-3,.10449E-3,0
SAUDISAT 5A,2018-102A,2026-06-25T05:15:49.802688,15.28123491,.0011306,97.3069,237.6454,104.7148,255.5346,0,U,43831,999,41690,.2247E-3,.6098E-4,0
SAUDISAT 5B,2018-102C,2026-06-25T05:41:02.218272,15.28376535,.0012012,97.3176,240.7468,106.5744,253.6816,0,U,43833,999,41702,.21755E-3,.5949E-4,0
ISAT,2018-111D,2026-06-23T13:16:15.164256,15.66333302,.00026052,97.5872,110.2675,165.3365,194.7971,0,U,43879,999,41216,.79540238E-3,.82802E-3,0
UWE-4,2018-111E,2026-06-24T01:47:26.613312,15.46500339,.00044861,97.5841,103.7842,307.8238,52.2604,0,U,43880,999,41184,.61682984E-3,.30603E-3,0
D-STAR ONE (SPARROW),2018-111F,2026-06-23T08:33:08.346240,15.76173004,.00046185,97.6095,115.7899,124.5126,235.6575,0,U,43881,999,41234,.94569905E-3,.149766E-2,0
JILIN-1 09,2019-005B,2026-06-25T03:25:36.756192,15.20576408,.0003649,97.4741,271.0373,78.6395,281.5250,0,U,43943,999,41035,.24704E-3,.5342E-4,0
JILIN-1 10,2019-005E,2026-06-25T04:38:23.375040,15.25799330,.0006784,97.4787,274.9975,244.4246,115.6291,0,U,43946,999,41053,.25128E-3,.6352E-4,0
EGYPTSAT-A (MISRSAT-A),2019-008A,2026-06-25T03:54:15.844896,14.72315746,.0001461,98.0193,240.8168,100.7552,259.3820,0,U,44047,999,39441,.10022E-3,.584E-5,0
EMISAT,2019-018A,2026-06-25T04:25:01.305696,14.43640495,.0018086,98.4645,234.9409,190.2113,169.8713,0,U,44078,999,38121,.57798E-4,.152E-5,0
JILIN-1 GAOFEN 3A,2019-032C,2026-06-24T06:06:26.621856,15.32769932,.00060846,44.9760,318.0376,328.9912,31.0613,0,U,44312,999,38892,.34285765E-3,.10772E-3,0
WT 1B,2019-032G,2026-06-25T01:09:52.020864,15.27316324,.0010035,44.9718,18.0258,287.7631,72.2156,0,U,44316,999,38828,.36902E-3,.9788E-4,0
